{
  "norad_id": 66779,
  "name": "FOSSASAT-2E22",
  "history": [
    {
      "epoch": "2026-03-28T17:12:25.896096Z",
      "apogee_km": 516.8791771849446,
      "perigee_km": 507.2535630768716,
      "latitude_deg": -5.199520939822753e-05,
      "longitude_deg": 78.22309616088629,
      "height_km": 513.3097559223112,
      "semi_major_axis_km": 6890.203370130908,
      "eccentricity": 0.0006985,
      "inclination_deg": 97.4225,
      "raan_deg": 162.4644,
      "arg_perigee_deg": 67.641,
      "mean_anomaly_deg": 292.5563,
      "mean_motion_rev_day": 15.17940334
    },
    {
      "epoch": "2026-03-29T04:16:54.630912Z",
      "apogee_km": 516.8769177571385,
      "perigee_km": 507.16138417490674,
      "latitude_deg": -7.417902622979493e-05,
      "longitude_deg": -87.89884903851116,
      "height_km": 513.3090952560173,
      "semi_major_axis_km": 6890.156150966022,
      "eccentricity": 0.00070503,
      "inclination_deg": 97.4234,
      "raan_deg": 162.917,
      "arg_perigee_deg": 68.4534,
      "mean_anomaly_deg": 291.745,
      "mean_motion_rev_day": 15.17955938
    },
    {
      "epoch": "2026-03-30T18:15:07.421184Z",
      "apogee_km": 516.436653098026,
      "perigee_km": 507.5328243799231,
      "latitude_deg": -6.913786637797823e-06,
      "longitude_deg": 62.540169236409575,
      "height_km": 513.295369453011,
      "semi_major_axis_km": 6890.121738738974,
      "eccentricity": 0.00064613,
      "inclination_deg": 97.4229,
      "raan_deg": 164.4687,
      "arg_perigee_deg": 66.6451,
      "mean_anomaly_deg": 293.5462,
      "mean_motion_rev_day": 15.1796731
    },
    {
      "epoch": "2026-03-31T03:44:40.547904Z",
      "apogee_km": 516.698003688879,
      "perigee_km": 507.30715684934785,
      "latitude_deg": 1.6828650290399405e-05,
      "longitude_deg": -79.84980591177026,
      "height_km": 512.7980799610563,
      "semi_major_axis_km": 6890.139580269113,
      "eccentricity": 0.00068147,
      "inclination_deg": 97.4217,
      "raan_deg": 164.8566,
      "arg_perigee_deg": 60.9519,
      "mean_anomaly_deg": 299.2397,
      "mean_motion_rev_day": 15.17961414
    },
    {
      "epoch": "2026-04-01T03:28:32.817792Z",
      "apogee_km": 516.6134047975611,
      "perigee_km": 507.30323239925747,
      "latitude_deg": 2.0610890696458542e-05,
      "longitude_deg": -75.82460141964921,
      "height_km": 512.6670668652799,
      "semi_major_axis_km": 6890.095318598409,
      "eccentricity": 0.00067562,
      "inclination_deg": 97.422,
      "raan_deg": 165.8242,
      "arg_perigee_deg": 59.4391,
      "mean_anomaly_deg": 300.7509,
      "mean_motion_rev_day": 15.17976041
    }
  ]
}